NORAD_CAT_ID,OBJECT_NAME,OBJECT_TYPE,EPOCH,MEAN_MOTION,ECCENTRICITY,INCLINATION,RA_OF_ASC_NODE,ARG_OF_PERICENTER,MEAN_ANOMALY,BSTAR,MEAN_MOTION_DOT,MEAN_MOTION_DDOT,TLE_LINE0,TLE_LINE1,TLE_LINE2,SEMIMAJOR_AXIS,PERIOD,APOGEE,PERIGEE,DECAYED
51133.0,STARLINK-3356,PAYLOAD,2022-11-11 19:34:34,15.08851605,0.0002577,53.215,348.4271,31.5477,328.5669,0.00071042,0.0001104,0.0,0 STARLINK-3356,1 51133U 22005AF  22315.81568146  .00011040  00000-0  71042-3 0  9997,2 51133  53.2150 348.4271 0002577  31.5477 328.5669 15.08851605 45476,6917.845,95.437,541.493,537.927,0.0
51133.0,STARLINK-3356,PAYLOAD,2022-11-12 03:31:30,15.08849254,0.0003057,53.215,346.9406,24.8852,335.2287,0.00053814,8.289e-05,0.0,0 STARLINK-3356,1 51133U 22005AF  22316.14688125  .00008289  00000-0  53814-3 0  9992,2 51133  53.2150 346.9406 0003057  24.8852 335.2287 15.08849254 46643,6917.852,95.437,541.832,537.602,0.0
51133.0,STARLINK-3356,PAYLOAD,2022-11-12 11:28:26,15.08846366,0.0002973,53.2152,345.4522,27.2634,332.8514,0.00050738,7.798e-05,0.0,0 STARLINK-3356,1 51133U 22005AF  22316.47808098  .00007798  00000-0  50738-3 0  9997,2 51133  53.2152 345.4522 0002973  27.2634 332.8514 15.08846366 45577,6917.861,95.437,541.783,537.669,0.0
51133.0,STARLINK-3356,PAYLOAD,2022-11-12 21:00:44,15.08855396,0.0002723999999999,53.2153,343.6682,29.7436,330.371,0.00080037,0.00012478,0.0,0 STARLINK-3356,1 51133U 22005AF  22316.87551759  .00012478  00000-0  80037-3 0  9996,2 51133  53.2153 343.6682 0002724  29.7436 330.3710 15.08855396 45637,6917.833000000001,95.437,541.5830000000002,537.814,0.0
51133.0,STARLINK-3356,PAYLOAD,2022-11-13 11:19:13,15.08836718,0.0002734,53.2168,340.9926,24.6138,335.4984,-7.614499999999998e-07,-3.01e-06,0.0,0 STARLINK-3356,1 51133U 22005AF  22317.47168079 -.00000301  00000-0 -76145-6 0  9994,2 51133  53.2168 340.9926 0002734  24.6138 335.4984 15.08836718 46848,6917.89,95.438,541.6469999999998,537.864,0.0
51133.0,STARLINK-3356,PAYLOAD,2022-11-14 07:59:14,15.08832922,0.0002554,53.2175,337.1267,31.0207,329.0936,-4.752600000000001e-05,-1.045e-05,0.0,0 STARLINK-3356,1 51133U 22005AF  22318.33280831 -.00001045  00000-0 -47526-4 0  9996,2 51133  53.2175 337.1267 0002554  31.0207 329.0936 15.08832922 46974,6917.901999999999,95.438,541.534,538.0,0.0
51133.0,STARLINK-3356,PAYLOAD,2022-11-15 07:50:01,15.08836742,0.0002781,53.216,332.6646,29.0676,331.0471,3.3255e-06,-2.36e-06,0.0,0 STARLINK-3356,1 51133U 22005AF  22319.32640901 -.00000236  00000-0  33255-5 0  9999,2 51133  53.2160 332.6646 0002781  29.0676 331.0471 15.08836742 46003,6917.89,95.438,541.679,537.831,0.0
51133.0,STARLINK-3356,PAYLOAD,2022-11-15 20:33:06,15.08839682,0.00028,53.2159,330.2868,27.1366,332.9772,0.00018993,2.736e-05,0.0,0 STARLINK-3356,1 51133U 22005AF  22319.85632948  .00002736  00000-0  18993-3 0  9995,2 51133  53.2159 330.2868 0002800  27.1366 332.9772 15.08839682 46086,6917.880999999999,95.438,541.683,537.809,0.0
51133.0,STARLINK-3356,PAYLOAD,2022-11-16 01:19:16,15.08842641,0.0002811,53.2159,329.3944,27.6888,332.4254,0.00029547,4.418e-05,0.0,0 STARLINK-3356,1 51133U 22005AF  22320.05504897  .00004418  00000-0  29547-3 0  9996,2 51133  53.2159 329.3944 0002811  27.6888 332.4254 15.08842641 47233,6917.871999999999,95.437,541.682,537.793,0.0
51133.0,STARLINK-3356,PAYLOAD,2022-11-16 07:40:49,15.08838435,0.0002733,53.2157,328.2046,27.5356,332.5781,0.00014225,1.976e-05,0.0,0 STARLINK-3356,1 51133U 22005AF  22320.32001225  .00001976  00000-0  14225-3 0  9996,2 51133  53.2157 328.2046 0002733  27.5356 332.5781 15.08838435 46156,6917.885,95.438,541.641,537.86,0.0
51133.0,STARLINK-3356,PAYLOAD,2022-11-17 07:31:35,15.0883878,0.0002889,53.2161,323.7442,26.1262,333.9876,1.8491e-05,6e-08,0.0,0 STARLINK-3356,1 51133U 22005AF  22321.31361105  .00000006  00000-0  18491-4 0  9995,2 51133  53.2161 323.7442 0002889  26.1262 333.9876 15.08838780 46304,6917.884,95.438,541.748,537.751,0.0
51133.0,STARLINK-3356,PAYLOAD,2022-11-17 20:14:40,15.08844818,0.0002856999999999,53.2159,321.3651,27.5207,332.5936,0.00010188,1.334e-05,0.0,0 STARLINK-3356,1 51133U 22005AF  22321.84352790  .00001334  00000-0  10188-3 0  9992,2 51133  53.2159 321.3651 0002857  27.5207 332.5936 15.08844818 46385,6917.866,95.437,541.707,537.754,0.0
51133.0,STARLINK-3356,PAYLOAD,2022-11-18 01:00:50,15.08844438,0.0002891,53.2157,320.4729,27.9123,332.2024,9.6999e-05,1.256e-05,0.0,0 STARLINK-3356,1 51133U 22005AF  22322.04224765  .00001256  00000-0  96999-4 0  9993,2 51133  53.2157 320.4729 0002891  27.9123 332.2024 15.08844438 47539,6917.8669999999975,95.437,541.732,537.732,0.0
51133.0,STARLINK-3356,PAYLOAD,2022-11-18 08:57:45,15.08847191,0.0002897,53.2157,318.986,29.2166,330.8988,0.00011385,1.524e-05,0.0,0 STARLINK-3356,1 51133U 22005AF  22322.37344604  .00001524  00000-0  11385-3 0  9997,2 51133  53.2157 318.9860 0002897  29.2166 330.8988 15.08847191 46468,6917.858,95.437,541.7280000000002,537.719,0.0
51133.0,STARLINK-3356,PAYLOAD,2022-11-18 16:54:42,15.08838177,0.0002794,53.2162,317.4983,29.9832,330.13199999999995,6.5422e-05,7.53e-06,0.0,0 STARLINK-3356,1 51133U 22005AF  22322.70465371  .00000753  00000-0  65422-4 0  9994,2 51133  53.2162 317.4983 0002794  29.9832 330.1320 15.08838177 47634,6917.886,95.438,541.684,537.818,0.0
51133.0,STARLINK-3356,PAYLOAD,2022-11-19 08:48:33,15.08848943,0.0002928,53.2156,314.5251,29.6506,330.4651,0.0003131,4.699e-05,0.0,0 STARLINK-3356,1 51133U 22005AF  22323.36704964  .00004699  00000-0  31310-3 0  9992,2 51133  53.2156 314.5251 0002928  29.6506 330.4651 15.08848943 47730,6917.853,95.437,541.744,537.693,0.0
51133.0,STARLINK-3356,PAYLOAD,2022-11-19 16:45:28,15.08847987,0.0002886,53.2149,313.0383,28.7526,331.3624,0.00025831,3.826e-05,0.0,0 STARLINK-3356,1 51133U 22005AF  22323.69824987  .00003826  00000-0  25831-3 0  9998,2 51133  53.2149 313.0383 0002886  28.7526 331.3624 15.08847987 46665,6917.856,95.437,541.717,537.724,0.0
51133.0,STARLINK-3356,PAYLOAD,2022-11-19 23:07:01,15.08846275,0.0002888,53.2149,311.8488,29.9356,330.1801,0.00018644,2.681e-05,0.0,0 STARLINK-3356,1 51133U 22005AF  22323.96320943  .00002681  00000-0  18644-3 0  9993,2 51133  53.2149 311.8488 0002888  29.9356 330.1801 15.08846275 47825,6917.861,95.437,541.724,537.7280000000002,0.0
51133.0,STARLINK-3356,PAYLOAD,2022-11-20 08:39:20,15.08846464,0.0002957,53.2153,310.0643,31.2609,328.8559,0.00018857,2.714e-05,0.0,0 STARLINK-3356,1 51133U 22005AF  22324.36065004  .00002714  00000-0  18857-3 0  9995,2 51133  53.2153 310.0643 0002957  31.2609 328.8559 15.08846464 46764,6917.861,95.437,541.771,537.68,0.0
51133.0,STARLINK-3356,PAYLOAD,2022-11-21 05:19:21,15.08834988,0.0002914,53.2148,306.1976,33.1537,326.9638,-2.636e-05,-7.08e-06,0.0,0 STARLINK-3356,1 51133U 22005AF  22325.22177539 -.00000708  00000-0 -26360-4 0  9990,2 51133  53.2148 306.1976 0002914  33.1537 326.9638 15.08834988 48012,6917.896,95.438,541.7769999999998,537.745,0.0
51133.0,STARLINK-3356,PAYLOAD,2022-11-21 08:30:07,15.08835855,0.0002876,53.2156,305.6034,30.4985,329.6174,-3.1187e-05,-7.85e-06,0.0,0 STARLINK-3356,1 51133U 22005AF  22325.35425664 -.00000785  00000-0 -31187-4 0  9997,2 51133  53.2156 305.6034 0002876  30.4985 329.6174 15.08835855 46910,6917.893,95.438,541.748,537.768,0.0
51133.0,STARLINK-3356,PAYLOAD,2022-11-22 05:10:09,15.08809597,0.0001262999999999,53.2165,301.738,90.7861,269.3276,-0.00042238,-6.998e-05,0.0,0 STARLINK-3356,1 51133U 22005AF  22326.21538558 -.00006998  00000-0 -42238-3 0  9990,2 51133  53.2165 301.7380 0001263  90.7861 269.3276 15.08809597 48168,6917.973000000001,95.439,540.712,538.965,0.0
51133.0,STARLINK-3356,PAYLOAD,2022-11-22 08:20:54,15.0885018,0.0002907,53.2154,301.1428,29.9334,330.1824,0.00024504,3.615e-05,0.0,0 STARLINK-3356,1 51133U 22005AF  22326.34784953  .00003615  00000-0  24504-3 0  9993,2 51133  53.2154 301.1428 0002907  29.9334 330.1824 15.08850180 48180,6917.849,95.437,541.725,537.703,0.0
51133.0,STARLINK-3356,PAYLOAD,2022-11-23 03:25:32,15.08838278,0.0002228,53.2151,297.57,46.6884,313.4294,0.00011668,1.569e-05,0.0,0 STARLINK-3356,1 51133U 22005AF  22327.14273447  .00001569  00000-0  11668-3 0  9996,2 51133  53.2151 297.5700 0002228  46.6884 313.4294 15.08838278 48303,6917.886,95.438,541.2919999999998,538.2090000000002,0.0
51133.0,STARLINK-3356,PAYLOAD,2022-11-23 08:11:41,15.08835071,0.00026,53.2161,296.6827,32.2007,327.9144,9.6272e-05,1.244e-05,0.0,0 STARLINK-3356,1 51133U 22005AF  22327.34145783  .00001244  00000-0  96272-4 0  9994,2 51133  53.2161 296.6827 0002600  32.2007 327.9144 15.08835071 47217,6917.895,95.438,541.559,537.962,0.0
51133.0,STARLINK-3356,PAYLOAD,2022-11-23 14:33:14,15.08837602,0.0002792,53.2157,295.4938,29.3365,330.7784,6.254e-05,7.07e-06,0.0,0 STARLINK-3356,1 51133U 22005AF  22327.60641693  .00000707  00000-0  62540-4 0  9998,2 51133  53.2157 295.4938 0002792  29.3365 330.7784 15.08837602 47256,6917.888000000001,95.438,541.684,537.821,0.0
51133.0,STARLINK-3356,PAYLOAD,2022-11-24 03:16:20,15.08835163,0.0002708,53.2171,293.1146,33.8874,326.2291,-4.0514e-05,-9.33e-06,0.0,0 STARLINK-3356,1 51133U 22005AF  22328.13634427 -.00000933  00000-0 -40514-4 0  9994,2 51133  53.2171 293.1146 0002708  33.8874 326.2291 15.08835163 48456,6917.895,95.438,541.634,537.887,0.0
51133.0,STARLINK-3356,PAYLOAD,2022-11-24 08:02:29,15.08834886,0.0002747,53.2172,292.2225,32.5816,327.5346,-4.9617e-05,-1.078e-05,0.0,0 STARLINK-3356,1 51133U 22005AF  22328.33506486 -.00001078  00000-0 -49617-4 0  9993,2 51133  53.2172 292.2225 0002747  32.5816 327.5346 15.08834886 47365,6917.896,95.438,541.661,537.861,0.0
51133.0,STARLINK-3356,PAYLOAD,2022-11-24 20:45:34,15.08835474,0.000278,53.2168,289.8437,29.7142,330.4007,7.907899999999999e-05,9.7e-06,0.0,0 STARLINK-3356,1 51133U 22005AF  22328.86498238  .00000970  00000-0  79079-4 0  9999,2 51133  53.2168 289.8437 0002780  29.7142 330.4007 15.08835474 47444,6917.894,95.438,541.682,537.836,0.0
